ICEYE-X43               
1 60539U 24149BZ  26198.78688107  .00000539  00000+0  48335-4 0  9997
2 60539  97.6792 275.3412 0006402 336.1221  23.9705 14.99789818104701
ICEYE-X40               
1 60549U 24149CK  26198.62842001  .00001484  00000+0  13034-3 0  9993
2 60549  97.6800 274.6351 0004536 359.1312   0.9902 14.98081367104637
ICEYE-X49               
1 62384U 24247H   26198.33459296  .00001489  00000+0  95972-4 0  9996
2 62384  44.9994 196.3565 0001334 239.0218 121.0529 15.13466886 86748
ICEYE-X47               
1 62389U 24247N   26198.97055336  .00000961  00000+0  66918-4 0  9990
2 62389  44.9960 192.5541 0001130   5.4918 354.5972 15.13491295 86842
ICEYE-X42               
1 62698U 25009CT  26198.79201938  .00000692  00000+0  74017-4 0  9991
2 62698  97.7389 276.5545 0001302  96.3806 263.7561 14.91825442 81850
ICEYE-X41               
1 62700U 25009CV  26198.48636368  .00001595  00000+0  14395-3 0  9995
2 62700  97.7059 277.5733 0000279 224.1417 135.9782 14.96919985 81945
ICEYE-X45               
1 62705U 25009DA  26198.79807605  .00002683  00000+0  21587-3 0  9998
2 62705  97.8417 285.7390 0001012  72.3019 287.8315 15.00846950 82279
ICEYE-X44               
1 62707U 25009DC  26198.78417943  .00001262  00000+0  11708-3 0  9997
2 62707  97.7058 277.4277 0002372  67.2614 292.8858 14.96175356104516
ICEYE-X48               
1 63253U 25052AV  26198.64829175  .00001865  00000+0  16230-3 0  9995
2 63253  97.6839  90.3675 0004205  98.4124 261.7575 14.98135134 73239
ICEYE-X46               
1 63258U 25052BA  26198.93614696  .00000546  00000+0  54602-4 0  9993
2 63258  97.6856  90.2357 0001644  80.7874 279.3533 14.95371857 73240
